NOAA 1 [-]              
1 04793U 70106A   19253.20112179 -.00000052  00000-0 -47945-4 0  9992
2 04793 101.6975 320.6521 0032144 124.4910 297.6557 12.53991216231318
NOAA 2 (ITOS-D) [-]     
1 06235U 72082A   19253.53582942 -.00000032  00000-0  83279-4 0  9992
2 06235 101.8040 219.4645 0003634 210.8413 258.3706 12.53118187145578
NOAA 3 [-]              
1 06920U 73086A   19253.53175648 -.00000053  00000-0 -59185-4 0  9992
2 06920 102.0601 221.8662 0006751   1.4349 110.5698 12.40341704 75644
NOAA 4 [-]              
1 07529U 74089A   19253.52550472 -.00000030  00000-0  95750-4 0  9995
2 07529 101.7616 220.3496 0008474 244.6723 222.6819 12.53134057 50167
NOAA 5 [-]              
1 09057U 76077A   19253.53173736 -.00000068  00000-0 -18218-3 0  9992
2 09057 101.9409 222.6972 0009459 209.7646 258.4308 12.37748111948880
TIROS N [P]             
1 11060U 78096A   19253.13117772  .00000007  00000-0  25021-4 0  9998
2 11060  98.7829 309.6527 0010981 163.5521 196.6013 14.18242499328493
NOAA 6 [P]              
1 11416U 79057A   19253.58739712  .00000028  00000-0  26383-4 0  9999
2 11416  98.6428 247.5678 0010504   7.3867 352.7470 14.33542891 96892
NOAA 7 [-]              
1 12553U 81059A   19253.66419003 -.00000008  00000-0  18921-4 0  9992
2 12553  99.0974 262.9532 0012498 103.6618   5.9350 14.17262715974844
NOAA 8 [-]              
1 13923U 83022A   19253.58222793 -.00000004  00000-0  15933-4 0  9991
2 13923  98.5893 237.5923 0014115 291.7822  68.1858 14.28680378898329
NOAA 9 [P]              
1 15427U 84123A   19253.46339799 -.00000015  00000-0  15216-4 0  9993
2 15427  98.8986 202.2957 0015189 152.8227 313.9938 14.16075618793753
NOAA 10 [-]             
1 16969U 86073A   19253.60877456 -.00000003  00000-0  15940-4 0  9995
2 16969  98.4839 247.7625 0013044  43.6079  65.5563 14.28077886716812
NOAA 11 [-]             
1 19531U 88089A   19253.64499597 -.00000020  00000-0  10533-4 0  9994
2 19531  98.4423 283.4868 0010631 207.5643 152.4969 14.15244581598090
NOAA 12 [-]             
1 21263U 91032A   19253.63158171 -.00000012  00000-0  12909-4 0  9990
2 21263  98.5159 266.6561 0014712  60.0012 300.2627 14.25898032472936
NOAA 13 [-]             
1 22739U 93050A   19253.59740502 -.00000019  00000-0  11989-4 0  9995
2 22739  98.4693 271.8559 0009610   7.8817 352.2506 14.12736188344564
NOAA 14 [-]             
1 23455U 94089A   19253.63147802 -.00000040  00000-0  10389-5 0  9991
2 23455  98.5889 311.6954 0009186 351.8994   8.2030 14.14133764274088
NOAA 15 [B]             
1 25338U 98030A   19253.62003759  .00000029  00000-0  30687-4 0  9992
2 25338  98.7439 274.7218 0010430   5.6012 354.5282 14.25930082109212
NOAA 16 [-]             
1 26536U 00055A   19253.62234632 -.00000018  00000-0  13464-4 0  9992
2 26536  98.7697 323.9159 0010934 160.4932 199.6661 14.13234724978085
NOAA 17 [-]             
1 27453U 02032A   19253.59450497 -.00000034  00000-0  35596-5 0  9992
2 27453  98.5435 201.7970 0011376 342.4448  17.6337 14.25046767894909
NOAA 18 [B]             
1 28654U 05018A   19253.65069322  .00000070  00000-0  62764-4 0  9998
2 28654  99.0884 301.8465 0013346 303.7219  56.2679 14.12450550737362
NOAA 19 [+]             
1 33591U 09005A   19253.63712702  .00000054  00000-0  54531-4 0  9994
2 33591  99.1855 246.8128 0014592 139.8452 220.3800 14.12375508545751
SUOMI NPP [+]           
1 37849U 11061A   19252.95845569 -.00000004  00000-0  18907-4 0  9994
2 37849  98.7391 190.0412 0001213  62.5421   1.4991 14.19549141407693
NOAA 20 [+]             
1 43013U 17073A   19253.61483142 -.00000024  00000-0  95510-5 0  9990
2 43013  98.7237 190.5112 0001461  78.5694 281.5647 14.19542728 93816
